[{"OBJECT_NAME":"LAPAN-TUBSAT","OBJECT_ID":"2007-001A","EPOCH":"2026-03-09T23:52:11.769024","MEAN_MOTION":14.8582984,"ECCENTRICITY":0.0012806,"INCLINATION":98.1337,"RA_OF_ASC_NODE":66,"ARG_OF_PERICENTER":143.3613,"MEAN_ANOMALY":216.848,"EPHEMERIS_TYPE":0,"CLASSIFICATION_TYPE":"U","NORAD_CAT_ID":29709,"ELEMENT_SET_NO":999,"REV_AT_EPOCH":3642,"BSTAR":8.085944e-5,"MEAN_MOTION_DOT":6.47e-6,"MEAN_MOTION_DDOT":0},{"OBJECT_NAME":"CZ-6A DEB","OBJECT_ID":"2022-151VK","EPOCH":"2026-03-09T01:34:24.829824","MEAN_MOTION":14.75360813,"ECCENTRICITY":0.00567041,"INCLINATION":98.6286,"RA_OF_ASC_NODE":126.1031,"ARG_OF_PERICENTER":243.8193,"MEAN_ANOMALY":115.7177,"EPHEMERIS_TYPE":0,"CLASSIFICATION_TYPE":"U","NORAD_CAT_ID":55194,"ELEMENT_SET_NO":999,"REV_AT_EPOCH":17037,"BSTAR":0.0044724255,"MEAN_MOTION_DOT":0.00031211,"MEAN_MOTION_DDOT":0}]
